NORAD_CAT_ID,OBJECT_NAME,OBJECT_TYPE,EPOCH,MEAN_MOTION,ECCENTRICITY,INCLINATION,RA_OF_ASC_NODE,ARG_OF_PERICENTER,MEAN_ANOMALY,BSTAR,MEAN_MOTION_DOT,MEAN_MOTION_DDOT,TLE_LINE0,TLE_LINE1,TLE_LINE2,SEMIMAJOR_AXIS,PERIOD,APOGEE,PERIGEE,DECAYED
55425.0,STARLINK-5615,PAYLOAD,2023-04-06 17:43:13,15.69930466,0.0004281,69.9991,266.8049,270.1999,89.8706,3.326e-05,3.79e-05,0.0,0 STARLINK-5615,1 55425U 23014AL  23096.73834677  .00003790  00000-0  33260-4 0  9993,2 55425  69.9991 266.8049 0004281 270.1999  89.8706 15.69930466 10416,6737.233,91.724,361.982,356.214,0.0
55425.0,STARLINK-5615,PAYLOAD,2023-04-06 20:46:43,15.69931426,0.0004163,69.9986,266.447,267.9054,92.1665,3.3358e-05,3.801e-05,0.0,0 STARLINK-5615,1 55425U 23014AL  23096.86577893  .00003801  00000-0  33358-4 0  9992,2 55425  69.9986 266.4470 0004163 267.9054  92.1665 15.69931426 11373,6737.23,91.724,361.9,356.29,0.0
55425.0,STARLINK-5615,PAYLOAD,2023-04-07 12:04:15,15.69905544,0.0003793,69.9972,264.6556,272.3565,87.7196,8.5556e-05,0.0001008,0.0,0 STARLINK-5615,1 55425U 23014AL  23097.50296128  .00010080  00000-0  85556-4 0  9997,2 55425  69.9972 264.6556 0003793 272.3565  87.7196 15.69905544 10536,6737.304,91.725,361.725,356.614,0.0
55425.0,STARLINK-5615,PAYLOAD,2023-04-07 13:36:00,15.6992661,0.0004132,70.0019,264.4764,271.3,88.7722,9.5898e-05,0.00011336,0.0,0 STARLINK-5615,1 55425U 23014AL  23097.56666847  .00011336  00000-0  95898-4 0  9997,2 55425  70.0019 264.4764 0004132 271.3000  88.7722 15.69926610 11489,6737.244,91.724,361.893,356.325,0.0
55425.0,STARLINK-5615,PAYLOAD,2023-04-07 21:14:47,15.69897135,0.0004257,70.0004,263.5805,274.7296,85.3413,2.2401e-05,2.479e-05,0.0,0 STARLINK-5615,1 55425U 23014AL  23097.88526824  .00002479  00000-0  22401-4 0  9990,2 55425  70.0004 263.5805 0004257 274.7296  85.3413 15.69897135 10591,6737.328,91.726,362.061,356.325,0.0
55425.0,STARLINK-5615,PAYLOAD,2023-04-08 12:32:16,15.6994266,0.0003473,70.0016,261.7894,256.9216,103.1592,-1.1584e-05,-1.607e-05,0.0,0 STARLINK-5615,1 55425U 23014AL  23098.52241504 -.00001607  00000-0 -11584-4 0  9995,2 55425  70.0016 261.7894 0003473 256.9216 103.1592 15.69942660 10697,6737.198,91.723,361.403,356.723,0.0
55425.0,STARLINK-5615,PAYLOAD,2023-04-09 11:28:33,15.69932363,0.0003713,70.0023,259.1057,269.1847,90.8923,4.5888e-05,5.31e-05,0.0,0 STARLINK-5615,1 55425U 23014AL  23099.47816692  .00005310  00000-0  45888-4 0  9993,2 55425  70.0023 259.1057 0003713 269.1847  90.8923 15.69932363 11780,6737.228,91.724,361.594,356.591,0.0
55425.0,STARLINK-5615,PAYLOAD,2023-04-09 13:00:18,15.69937432,0.0003588,70.0034,258.9261,267.7468,92.3317,1.9111e-05,2.087e-05,0.0,0 STARLINK-5615,1 55425U 23014AL  23099.54188090  .00002087  00000-0  19111-4 0  9993,2 55425  70.0034 258.9261 0003588 267.7468  92.3317 15.69937432 10852,6737.213,91.723,361.495,356.661,0.0
55425.0,STARLINK-5615,PAYLOAD,2023-04-09 22:10:49,15.69936264,0.0004124,69.9988,257.8466,275.5517,84.5209,1.5282e-05,1.626e-05,0.0,0 STARLINK-5615,1 55425U 23014AL  23099.92417935  .00001626  00000-0  15282-4 0  9991,2 55425  69.9988 257.8466 0004124 275.5517  84.5209 15.69936264 11857,6737.216,91.723,361.86,356.303,0.0
55425.0,STARLINK-5615,PAYLOAD,2023-04-10 22:38:50,15.69937833,0.0003424,69.9968,254.9772,276.1103,83.9703,9.8658e-06,9.74e-06,0.0,0 STARLINK-5615,1 55425U 23014AL  23100.94364578  .00000974  00000-0  98658-5 0  9994,2 55425  69.9968 254.9772 0003424 276.1103  83.9703 15.69937833 11072,6737.212,91.723,361.384,356.77,0.0
55425.0,STARLINK-5615,PAYLOAD,2023-04-11 09:21:07,15.69912999,0.0003949,69.9978,253.7237,271.6902,88.3842,-3.1804e-05,-4.034e-05,0.0,0 STARLINK-5615,1 55425U 23014AL  23101.38967194 -.00004034  00000-0 -31804-4 0  9998,2 55425  69.9978 253.7237 0003949 271.6902  88.3842 15.69912999 11142,6737.283,91.725,361.808,356.487,0.0
55425.0,STARLINK-5615,PAYLOAD,2023-04-11 12:24:38,15.69913522,0.0004131,69.9987,253.3693,274.4992,85.5731,-2.9052e-05,-3.704e-05,0.0,0 STARLINK-5615,1 55425U 23014AL  23101.51710738 -.00003704  00000-0 -29052-4 0  9998,2 55425  69.9987 253.3693 0004131 274.4992  85.5731 15.69913522 12104,6737.281,91.725,361.93,356.363,0.0
55425.0,STARLINK-5615,PAYLOAD,2023-04-12 03:42:09,15.69915836,0.0004003,69.9979,251.5775,269.2758,90.7979,-5.4311e-06,-8.66e-06,0.0,0 STARLINK-5615,1 55425U 23014AL  23102.15427087 -.00000866  00000-0 -54311-5 0  9994,2 55425  69.9979 251.5775 0004003 269.2758  90.7979 15.69915836 11264,6737.275,91.725,361.837,356.443,0.0
55425.0,STARLINK-5615,PAYLOAD,2023-04-12 11:20:53,15.69932658,0.0003897,69.9988,250.6802,270.4,89.6749,1.4176e-05,1.493e-05,0.0,0 STARLINK-5615,1 55425U 23014AL  23102.47284677  .00001493  00000-0  14176-4 0  9994,2 55425  69.9988 250.6802 0003897 270.4000  89.6749 15.69932658 12252,6737.227,91.724,361.717,356.466,0.0
55425.0,STARLINK-5615,PAYLOAD,2023-04-12 15:56:09,15.69935027,0.000415,69.9982,250.143,267.8315,92.2405,2.0441e-05,2.247e-05,0.0,0 STARLINK-5615,1 55425U 23014AL  23102.66399403  .00002247  00000-0  20441-4 0  9999,2 55425  69.9982 250.1430 0004150 267.8315  92.2405 15.69935027 11341,6737.22,91.724,361.881,356.289,0.0
55425.0,STARLINK-5615,PAYLOAD,2023-04-13 10:17:11,15.69914877,0.0004151,69.9975,247.9936,268.3343,91.7377,1.1747e-05,1.199e-05,0.0,0 STARLINK-5615,1 55425U 23014AL  23103.42860662  .00001199  00000-0  11747-4 0  9998,2 55425  69.9975 247.9936 0004151 268.3343  91.7377 15.69914877 12406,6737.278,91.725,361.939,356.346,0.0
55425.0,STARLINK-5615,PAYLOAD,2023-04-13 11:48:56,15.69917826,0.0004341,69.9971,247.8145,269.1746,90.8952,9.4837e-06,9.27e-06,0.0,0 STARLINK-5615,1 55425U 23014AL  23103.49232425  .00000927  00000-0  94837-5 0  9995,2 55425  69.9971 247.8145 0004341 269.1746  90.8952 15.69917826 11472,6737.269,91.725,362.059,356.209,0.0
55425.0,STARLINK-5615,PAYLOAD,2023-04-14 12:16:59,15.69918329,0.0003635,69.9978,244.9475,265.3053,94.7728,-6.945e-06,-1.048e-05,0.0,0 STARLINK-5615,1 55425U 23014AL  23104.51179426 -.00001048  00000-0 -69450-5 0  9990,2 55425  69.9978 244.9475 0003635 265.3053  94.7728 15.69918329 12572,6737.268,91.725,361.582,356.684,0.0
55425.0,STARLINK-5615,PAYLOAD,2023-04-15 12:45:00,15.69919139,0.0003588,69.9982,242.0821,266.2605,93.8181,7.7093e-06,7.14e-06,0.0,0 STARLINK-5615,1 55425U 23014AL  23105.53126028  .00000714  00000-0  77093-5 0  9992,2 55425  69.9982 242.0821 0003588 266.2605  93.8181 15.69919139 12732,6737.265,91.724,361.548,356.713,0.0
55425.0,STARLINK-5615,PAYLOAD,2023-04-15 18:52:00,15.69931874,0.0003343,69.9981,241.3649,258.611,101.471,1.9847e-05,2.175e-05,0.0,0 STARLINK-5615,1 55425U 23014AL  23105.78611699  .00002175  00000-0  19847-4 0  9997,2 55425  69.9981 241.3649 0003343 258.6110 101.4710 15.69931874 11830,6737.229,91.724,361.346,356.842,0.0
55425.0,STARLINK-5615,PAYLOAD,2023-04-16 02:30:46,15.69920215,0.0003447,69.9992,240.4699,265.8427,94.2374,2.3137e-05,2.57e-05,0.0,0 STARLINK-5615,1 55425U 23014AL  23106.10470479  .00002570  00000-0  23137-4 0  9999,2 55425  69.9992 240.4699 0003447 265.8427  94.2374 15.69920215 11880,6737.262,91.724,361.45,356.805,0.0
55425.0,STARLINK-5615,PAYLOAD,2023-04-16 11:41:17,15.69916386,0.000322,69.9988,239.3944,262.9269,97.156,1.4608e-05,1.544e-05,0.0,0 STARLINK-5615,1 55425U 23014AL  23106.48701171  .00001544  00000-0  14608-4 0  9999,2 55425  69.9988 239.3944 0003220 262.9269  97.1560 15.69916386 12880,6737.273,91.725,361.308,356.969,0.0
55425.0,STARLINK-5615,PAYLOAD,2023-04-16 17:48:18,15.69925768,0.0002886,69.9991,238.679,252.9215,107.1664,7.7083e-06,7.14e-06,0.0,0 STARLINK-5615,1 55425U 23014AL  23106.74187616  .00000714  00000-0  77083-5 0  9995,2 55425  69.9991 238.6790 0002886 252.9215 107.1664 15.69925768 12928,6737.246,91.724,361.056,357.167,0.0
55425.0,STARLINK-5615,PAYLOAD,2023-04-17 12:09:19,15.69918708,0.0002983,69.9993,236.5287,261.4266,98.6591,1.656e-05,1.779e-05,0.0,0 STARLINK-5615,1 55425U 23014AL  23107.50647772  .00001779  00000-0  16560-4 0  9998,2 55425  69.9993 236.5287 0002983 261.4266  98.6591 15.69918708 13040,6737.267,91.724,361.141,357.122,0.0
55425.0,STARLINK-5615,PAYLOAD,2023-04-17 18:16:20,15.69912048,0.0003478,69.9981,235.814,261.4153,98.6648,-1.2119e-05,-1.669e-05,0.0,0 STARLINK-5615,1 55425U 23014AL  23107.76135347 -.00001669  00000-0 -12119-4 0  9992,2 55425  69.9981 235.8140 0003478 261.4153  98.6648 15.69912048 12146,6737.286,91.725,361.494,356.807,0.0
55425.0,STARLINK-5615,PAYLOAD,2023-04-18 01:55:05,15.69925394,0.0003585,69.9995,234.9171,264.211,95.8677,4.7352e-06,3.57e-06,0.0,0 STARLINK-5615,1 55425U 23014AL  23108.07992534  .00000357  00000-0  47352-5 0  9995,2 55425  69.9995 234.9171 0003585 264.2110  95.8677 15.69925394 12192,6737.247,91.724,361.528,356.697,0.0
55425.0,STARLINK-5615,PAYLOAD,2023-04-18 09:33:51,15.69917165,0.0003201,69.9998,234.0213,263.4078,96.6754,1.061e-05,1.063e-05,0.0,0 STARLINK-5615,1 55425U 23014AL  23108.39851473  .00001063  00000-0  10610-4 0  9997,2 55425  69.9998 234.0213 0003201 263.4078  96.6754 15.69917165 12240,6737.271,91.725,361.293,356.979,0.0
55425.0,STARLINK-5615,PAYLOAD,2023-04-18 17:12:37,15.69922245,0.0003239,69.9995,233.1253,261.0836,98.9993,1.0977e-05,1.107e-05,0.0,0 STARLINK-5615,1 55425U 23014AL  23108.71709572  .00001107  00000-0  10977-4 0  9990,2 55425  69.9995 233.1253 0003239 261.0836  98.9993 15.69922245 13233,6737.256,91.724,361.304,356.939,0.0
55425.0,STARLINK-5615,PAYLOAD,2023-04-19 06:57:12,15.70889393,0.0008382,69.9994,231.5101,233.2086,126.8341,0.00090638,0.00114968,0.0,0 STARLINK-5615,1 55425U 23014AL  23109.28973261  .00114968  00000-0  90638-3 0  9992,2 55425  69.9994 231.5101 0008382 233.2086 126.8341 15.70889393 13324,6734.491,91.668,362.001,350.711,0.0
55425.0,STARLINK-5615,PAYLOAD,2023-04-19 22:00:00,15.67790712,0.0003446,70.0006,229.7568,272.566,20.8776,-0.0096088,-0.00960797,0.0,0 STARLINK-5615,1 55425U 23014AL  23109.91667824 -.00960797  00000-0 -96088-2 0  9992,2 55425  70.0006 229.7568 0003446 272.5660  20.8776 15.67790712 12480,6743.362,91.849,367.55,362.903,0.0
